{"type": "FeatureCollection", "features": [ {"type": "Feature", "properties": {"norad_id": 43108, "name": "BEIDOU-3 M8 (C28)", "group": "beidou", "lat": -5.028156396493224, "lon": 132.30342843287835, "alt_km": 21528.62254658937, "timestamp": "2025-12-14T20:40:32.036706+00:00", "meta": {"OBJECT_NAME": "BEIDOU-3 M8 (C28)", "OBJECT_ID": "2018-003B", "EPOCH": "2025-12-11T21:34:27.940800", "MEAN_MOTION": 1.86230629, "ECCENTRICITY": 0.00047751, "INCLINATION": 54.4899, "RA_OF_ASC_NODE": 308.8263, "ARG_OF_PERICENTER": 274.4182, "MEAN_ANOMALY": 85.5183, "EPHEMERIS_TYPE": 0, "CLASSIFICATION_TYPE": "U", "NORAD_CAT_ID": 43108, "ELEMENT_SET_NO": 999, "REV_AT_EPOCH": 5387, "BSTAR": 0, "MEAN_MOTION_DOT": -9e-07, "MEAN_MOTION_DDOT": 0}, "tle": {"line1": "1 43108U 18003B   25345.89893450 -.00000090  00000+0  00000+0 0  9991", "line2": "2 43108  54.4899 308.8263 0004775 274.4182  85.5183  1.86230629 53878"}}, "geometry": {"type": "Point", "coordinates": [132.30342843287835, -5.028156396493224]}}, {"type": "Feature", "properties": {"norad_id": 43207, "name": "BEIDOU-3 M4 (C22)", "group": "beidou", "lat": -51.56848233220201, "lon": -54.26039621220145, "alt_km": 21539.125775257708, "timestamp": "2025-12-14T20:40:32.036718+00:00", "meta": {"OBJECT_NAME": "BEIDOU-3 M4 (C22)", "OBJECT_ID": "2018-018A", "EPOCH": "2025-12-13T09:57:17.275392", "MEAN_MOTION": 1.86231174, "ECCENTRICITY": 0.00041262, "INCLINATION": 56.4868, "RA_OF_ASC_NODE": 69.2813, "ARG_OF_PERICENTER": 7.8207, "MEAN_ANOMALY": 352.2039, "EPHEMERIS_TYPE": 0, "CLASSIFICATION_TYPE": "U", "NORAD_CAT_ID": 43207, "ELEMENT_SET_NO": 999, "REV_AT_EPOCH": 5328, "BSTAR": 0, "MEAN_MOTION_DOT": -7.8e-07, "MEAN_MOTION_DDOT": 0}, "tle": {"line1": "1 43207U 18018A   25347.41478328 -.00000078  00000+0  00000+0 0  9996", "line2": "2 43207  56.4868  69.2813 0004126   7.8207 352.2039  1.86231174 53286"}}, "geometry": {"type": "Point", "coordinates": [-54.26039621220145, -51.56848233220201]}}, {"type": "Feature", "properties": {"norad_id": 43208, "name": "BEIDOU-3 M3 (C21)", "group": "beidou", "lat": -20.853340326764815, "lon": -96.15597280256198, "alt_km": 21537.71621073195, "timestamp": "2025-12-14T20:40:32.036730+00:00", "meta": {"OBJECT_NAME": "BEIDOU-3 M3 (C21)", "OBJECT_ID": "2018-018B", "EPOCH": "2025-12-10T19:07:00.567840", "MEAN_MOTION": 1.8623124, "ECCENTRICITY": 0.0006564, "INCLINATION": 56.484, "RA_OF_ASC_NODE": 69.3721, "ARG_OF_PERICENTER": 317.0111, "MEAN_ANOMALY": 42.9593, "EPHEMERIS_TYPE": 0, "CLASSIFICATION_TYPE": "U", "NORAD_CAT_ID": 43208, "ELEMENT_SET_NO": 999, "REV_AT_EPOCH": 5323, "BSTAR": 0, "MEAN_MOTION_DOT": -5.7e-07, "MEAN_MOTION_DDOT": 0}, "tle": {"line1": "1 43208U 18018B   25344.79653435 -.00000057  00000+0  00000+0 0  9996", "line2": "2 43208  56.4840  69.3721 0006564 317.0111  42.9593  1.86231240 53231"}}, "geometry": {"type": "Point", "coordinates": [-96.15597280256198, -20.853340326764815]}}, {"type": "Feature", "properties": {"norad_id": 43245, "name": "BEIDOU-3 M9 (C29)", "group": "beidou", "lat": 44.96235166464306, "lon": -7.908232599214056, "alt_km": 21526.1166195842, "timestamp": "2025-12-14T20:40:32.036741+00:00", "meta": {"OBJECT_NAME": "BEIDOU-3 M9 (C29)", "OBJECT_ID": "2018-029A", "EPOCH": "2025-12-13T16:44:23.331264", "MEAN_MOTION": 1.86228229, "ECCENTRICITY": 0.0001559, "INCLINATION": 54.3645, "RA_OF_ASC_NODE": 306.4338, "ARG_OF_PERICENTER": 282.9572, "MEAN_ANOMALY": 77.0146, "EPHEMERIS_TYPE": 0, "CLASSIFICATION_TYPE": "U", "NORAD_CAT_ID": 43245, "ELEMENT_SET_NO": 999, "REV_AT_EPOCH": 5244, "BSTAR": 0, "MEAN_MOTION_DOT": -9.8e-07, "MEAN_MOTION_DDOT": 0}, "tle": {"line1": "1 43245U 18029A   25347.69749226 -.00000098  00000+0  00000+0 0  9990", "line2": "2 43245  54.3645 306.4338 0001559 282.9572  77.0146  1.86228229 52449"}}, "geometry": {"type": "Point", "coordinates": [-7.908232599214056, 44.96235166464306]}}, {"type": "Feature", "properties": {"norad_id": 43246, "name": "BEIDOU-3 M10 (C30)", "group": "beidou", "lat": 52.091606701947605, "lon": 59.378202497128825, "alt_km": 21524.640735691533, "timestamp": "2025-12-14T20:40:32.036752+00:00", "meta": {"OBJECT_NAME": "BEIDOU-3 M10 (C30)", "OBJECT_ID": "2018-029B", "EPOCH": "2025-12-13T15:11:09.100608", "MEAN_MOTION": 1.86228859, "ECCENTRICITY": 0.00040776, "INCLINATION": 54.3622, "RA_OF_ASC_NODE": 306.4632, "ARG_OF_PERICENTER": 1.1886, "MEAN_ANOMALY": 358.8016, "EPHEMERIS_TYPE": 0, "CLASSIFICATION_TYPE": "U", "NORAD_CAT_ID": 43246, "ELEMENT_SET_NO": 999, "REV_AT_EPOCH": 5242, "BSTAR": 0, "MEAN_MOTION_DOT": -9.8e-07, "MEAN_MOTION_DDOT": 0}, "tle": {"line1": "1 43246U 18029B   25347.63274422 -.00000098  00000+0  00000+0 0  9996", "line2": "2 43246  54.3622 306.4632 0004077   1.1886 358.8016  1.86228859 52422"}}, "geometry": {"type": "Point", "coordinates": [59.378202497128825, 52.091606701947605]}}, {"type": "Feature", "properties": {"norad_id": 43539, "name": "BEIDOU-2 IGSO-7 (C16)", "group": "beidou", "lat": -15.458569170359372, "lon": 153.52994360084926, "alt_km": 35895.76961351761, "timestamp": "2025-12-14T20:40:32.036764+00:00", "meta": {"OBJECT_NAME": "BEIDOU-2 IGSO-7 (C16)", "OBJECT_ID": "2018-057A", "EPOCH": "2025-12-13T21:43:45.803136", "MEAN_MOTION": 1.00256887, "ECCENTRICITY": 0.00923973, "INCLINATION": 55.1758, "RA_OF_ASC_NODE": 164.6607, "ARG_OF_PERICENTER": 235.1935, "MEAN_ANOMALY": 119.7561, "EPHEMERIS_TYPE": 0, "CLASSIFICATION_TYPE": "U", "NORAD_CAT_ID": 43539, "ELEMENT_SET_NO": 999, "REV_AT_EPOCH": 2726, "BSTAR": 0, "MEAN_MOTION_DOT": -2.9e-07, "MEAN_MOTION_DDOT": 0}, "tle": {"line1": "1 43539U 18057A   25347.90539124 -.00000029  00000+0  00000+0 0  9999", "line2": "2 43539  55.1758 164.6607 0092397 235.1935 119.7561  1.00256887 27269"}}, "geometry": {"type": "Point", "coordinates": [153.52994360084926, -15.458569170359372]}}, {"type": "Feature", "properties": {"norad_id": 43581, "name": "BEIDOU-3 M5 (C23)", "group": "beidou", "lat": -36.2048415010681, "lon": 156.53427214125742, "alt_km": 21528.26342173208, "timestamp": "2025-12-14T20:40:32.036775+00:00", "meta": {"OBJECT_NAME": "BEIDOU-3 M5 (C23)", "OBJECT_ID": "2018-062A", "EPOCH": "2025-12-12T05:55:01.607232", "MEAN_MOTION": 1.86228672, "ECCENTRICITY": 0.00021016, "INCLINATION": 54.0891, "RA_OF_ASC_NODE": 188.6597, "ARG_OF_PERICENTER": 354.1416, "MEAN_ANOMALY": 5.9159, "EPHEMERIS_TYPE": 0, "CLASSIFICATION_TYPE": "U", "NORAD_CAT_ID": 43581, "ELEMENT_SET_NO": 999, "REV_AT_EPOCH": 5015, "BSTAR": 0, "MEAN_MOTION_DOT": 7.9e-07, "MEAN_MOTION_DDOT": 0}, "tle": {"line1": "1 43581U 18062A   25346.24654638  .00000079  00000+0  00000+0 0  9990", "line2": "2 43581  54.0891 188.6597 0002101 354.1416   5.9159  1.86228672 50154"}}, "geometry": {"type": "Point", "coordinates": [156.53427214125742, -36.2048415010681]}}, {"type": "Feature", "properties": {"norad_id": 43582, "name": "BEIDOU-3 M6 (C24)", "group": "beidou", "lat": 34.958293192454526, "lon": -140.98830809052927, "alt_km": 21501.857599041454, "timestamp": "2025-12-14T20:40:32.036787+00:00", "meta": {"OBJECT_NAME": "BEIDOU-3 M6 (C24)", "OBJECT_ID": "2018-062B", "EPOCH": "2025-12-13T04:24:17.587296", "MEAN_MOTION": 1.86229795, "ECCENTRICITY": 0.00078891, "INCLINATION": 54.0888, "RA_OF_ASC_NODE": 188.6169, "ARG_OF_PERICENTER": 47.4004, "MEAN_ANOMALY": 312.7289, "EPHEMERIS_TYPE": 0, "CLASSIFICATION_TYPE": "U", "NORAD_CAT_ID": 43582, "ELEMENT_SET_NO": 999, "REV_AT_EPOCH": 5017, "BSTAR": 0, "MEAN_MOTION_DOT": 9.2e-07, "MEAN_MOTION_DDOT": 0}, "tle": {"line1": "1 43582U 18062B   25347.18353689  .00000092  00000+0  00000+0 0  9992", "line2": "2 43582  54.0888 188.6169 0007889  47.4004 312.7289  1.86229795 50171"}}, "geometry": {"type": "Point", "coordinates": [-140.98830809052927, 34.958293192454526]}}, {"type": "Feature", "properties": {"norad_id": 43602, "name": "BEIDOU-3 M12 (C26)", "group": "beidou", "lat": 54.03673303589617, "lon": -88.1413737228994, "alt_km": 21504.138102234843, "timestamp": "2025-12-14T20:40:32.036798+00:00", "meta": {"OBJECT_NAME": "BEIDOU-3 M12 (C26)", "OBJECT_ID": "2018-067A", "EPOCH": "2025-12-13T02:54:46.196064", "MEAN_MOTION": 1.8622768, "ECCENTRICITY": 0.00091748, "INCLINATION": 54.1833, "RA_OF_ASC_NODE": 187.3503, "ARG_OF_PERICENTER": 41.0824, "MEAN_ANOMALY": 319.0476, "EPHEMERIS_TYPE": 0, "CLASSIFICATION_TYPE": "U", "NORAD_CAT_ID": 43602, "ELEMENT_SET_NO": 999, "REV_AT_EPOCH": 4965, "BSTAR": 0, "MEAN_MOTION_DOT": 9.3e-07, "MEAN_MOTION_DDOT": 0}, "tle": {"line1": "1 43602U 18067A   25347.12136801  .00000093  00000+0  00000+0 0  9990", "line2": "2 43602  54.1833 187.3503 0009174  41.0824 319.0476  1.86227680 49652"}}, "geometry": {"type": "Point", "coordinates": [-88.1413737228994, 54.03673303589617]}}, {"type": "Feature", "properties": {"norad_id": 43603, "name": "BEIDOU-3 M11 (C25)", "group": "beidou", "lat": -2.873893245828, "lon": -174.81706739840348, "alt_km": 21517.210505266496, "timestamp": "2025-12-14T20:40:32.036810+00:00", "meta": {"OBJECT_NAME": "BEIDOU-3 M11 (C25)", "OBJECT_ID": "2018-067B", "EPOCH": "2025-12-13T06:08:27.943008", "MEAN_MOTION": 1.86227177, "ECCENTRICITY": 0.00055759, "INCLINATION": 54.1803, "RA_OF_ASC_NODE": 187.3097, "ARG_OF_PERICENTER": 36.863, "MEAN_ANOMALY": 323.2366, "EPHEMERIS_TYPE": 0, "CLASSIFICATION_TYPE": "U", "NORAD_CAT_ID": 43603, "ELEMENT_SET_NO": 999, "REV_AT_EPOCH": 4968, "BSTAR": 0, "MEAN_MOTION_DOT": 9.5e-07, "MEAN_MOTION_DDOT": 0}, "tle": {"line1": "1 43603U 18067B   25347.25587897  .00000095  00000+0  00000+0 0  9992", "line2": "2 43603  54.1803 187.3097 0005575  36.8630 323.2366  1.86227177 49685"}}, "geometry": {"type": "Point", "coordinates": [-174.81706739840348, -2.873893245828]}}]}